QIANFAN-33              
1 61566U 24185Q   25209.61573285  .00000341  00000+0  23742-3 0  9997
2 61566  88.9792  94.1156 0008628  43.7149 316.4710 13.96404502 50020
QIANFAN-34              
1 61567U 24185R   25209.85776351  .00000268  00000+0  16642-3 0  9992
2 61567  88.9769  93.8331 0007503  52.7277 307.4586 14.02154168 50208
QIANFAN-35              
1 61568U 24185S   25209.61491892  .00000594  00000+0  23542-3 0  9990
2 61568  88.9792  92.9943 0008139  32.5602 327.6093 14.27651401 50619
QIANFAN-36              
1 61569U 24185T   25209.59481538  .00000098  00000+0  12377-3 0  9997
2 61569  88.9782  95.3486 0008177  79.7072 280.5003 13.55543630 49344
QIANFAN-37              
1 62238U 24232B   25209.60213194  .00000062  00000+0  76877-4 0  9994
2 62238  88.9926  55.2037 0002471  97.6208 262.5224 13.50964564 80658
QIANFAN-38              
1 62239U 24232C   25209.62689225  .00000026  00000+0  21810-4 0  9996
2 62239  88.9933  55.1076 0012980 226.8032 133.2035 13.50953118 80710
QIANFAN-39              
1 62240U 24232D   25209.59192946  .00000134  00000+0  50691-4 0  9992
2 62240  88.9931  53.0216 0016698 160.0164 200.1687 14.25227813 81850
QIANFAN-40              
1 62241U 24232E   25209.58570570  .00000027  00000+0  22747-4 0  9997
2 62241  88.9960  54.6577 0011858 235.5477 124.4554 13.50959286 81076
